{
    "links": {
        "self": "http://www.neowsapp.com/rest/v1/neo/3753599?api_key=iIulBulltgU6a56xZRHN4H3l9WmuAYTsLGpBGhQ2"
    },
    "id": "3753599",
    "neo_reference_id": "3753599",
    "name": "(2016 KR)",
    "designation": "2016 KR",
    "nasa_jpl_url": "http://ssd.jpl.nasa.gov/sbdb.cgi?sstr=3753599",
    "absolute_magnitude_h": 25.4,
    "estimated_diameter": {
        "kilometers": {
            "estimated_diameter_min": 0.022108281,
            "estimated_diameter_max": 0.0494356193
        },
        "meters": {
            "estimated_diameter_min": 22.1082810359,
            "estimated_diameter_max": 49.435619262
        },
        "miles": {
            "estimated_diameter_min": 0.0137374447,
            "estimated_diameter_max": 0.0307178602
        },
        "feet": {
            "estimated_diameter_min": 72.5337327539,
            "estimated_diameter_max": 162.1903570994
        }
    },
    "is_potentially_hazardous_asteroid": false,
    "close_approach_data": [
        {
            "close_approach_date": "1948-06-16",
            "close_approach_date_full": "1948-Jun-16 12:04",
            "epoch_date_close_approach": -679838160000,
            "relative_velocity": {
                "kilometers_per_second": "10.994730728",
                "kilometers_per_hour": "39581.0306207521",
                "miles_per_hour": "24594.1131654334"
            },
            "miss_distance": {
                "astronomical": "0.0707373049",
                "lunar": "27.5168116061",
                "kilometers": "10582150.142580563",
                "miles": "6575443.1912472494"
            },
            "orbiting_body": "Mars"
        },
        {
            "close_approach_date": "2011-10-26",
            "close_approach_date_full": "2011-Oct-26 14:21",
            "epoch_date_close_approach": 1319638860000,
            "relative_velocity": {
                "kilometers_per_second": "23.366292456",
                "kilometers_per_hour": "84118.6528414769",
                "miles_per_hour": "52268.0595947499"
            },
            "miss_distance": {
                "astronomical": "0.3596832699",
                "lunar": "139.9167919911",
                "kilometers": "53807851.051675113",
                "miles": "33434648.2582700394"
            },
            "orbiting_body": "Earth"
        },
        {
            "close_approach_date": "2016-06-05",
            "close_approach_date_full": "2016-Jun-05 23:01",
            "epoch_date_close_approach": 1465167660000,
            "relative_velocity": {
                "kilometers_per_second": "12.8832591331",
                "kilometers_per_hour": "46379.7328792889",
                "miles_per_hour": "28818.5623549115"
            },
            "miss_distance": {
                "astronomical": "0.0253805162",
                "lunar": "9.8730208018",
                "kilometers": "3796871.163020494",
                "miles": "2359266.3400670572"
            },
            "orbiting_body": "Earth"
        }
    ],
    "orbital_data": {
        "orbit_id": "8",
        "orbit_determination_date": "2017-04-06 08:25:45",
        "first_observation_date": "2016-05-27",
        "last_observation_date": "2016-06-04",
        "data_arc_in_days": 8,
        "observations_used": 45,
        "orbit_uncertainty": "8",
        "minimum_orbit_intersection": ".0252678",
        "jupiter_tisserand_invariant": "3.882",
        "epoch_osculation": "2457538.5",
        "eccentricity": ".5307197753162259",
        "semi_major_axis": "1.803458936681219",
        "inclination": "3.246639067684601",
        "ascending_node_longitude": "101.5342112900943",
        "orbital_period": "884.6221597164147",
        "perihelion_distance": ".8463276150137229",
        "perihelion_argument": "212.1332622283878",
        "aphelion_distance": "2.760590258348716",
        "perihelion_time": "2457587.489812485913",
        "mean_anomaly": "340.0634290004872",
        "mean_motion": ".40695340496038",
        "equinox": "J2000",
        "orbit_class": {
            "orbit_class_type": "APO",
            "orbit_class_description": "Near-Earth asteroid orbits which cross the Earth’s orbit similar to that of 1862 Apollo",
            "orbit_class_range": "a (semi-major axis) > 1.0 AU; q (perihelion) < 1.017 AU"
        }
    },
    "is_sentry_object": false
}